{
  "norad_id": 53801,
  "name": "STARLINK-4715",
  "history": [
    {
      "epoch": "2026-03-28T15:48:44.721216Z",
      "apogee_km": 540.6580854890453,
      "perigee_km": 538.7740773808473,
      "latitude_deg": 5.674769784931144e-06,
      "longitude_deg": 115.45103686780159,
      "height_km": 540.6654709636989,
      "semi_major_axis_km": 6917.853081434946,
      "eccentricity": 0.00013617,
      "inclination_deg": 53.217,
      "raan_deg": 178.7135,
      "arg_perigee_deg": 93.2694,
      "mean_anomaly_deg": 266.8454,
      "mean_motion_rev_day": 15.08848934
    }
  ]
}